X,Y,neighborhood_id,neighborhood_name,device_serial,device_connectedto,device_address,device_lat,device_long,device_tags,etl_updatedtimestamp,is_current,org1,org2,inside_outside,landmark,ObjectId
-7910482.19379852,5218090.54673119,N_568579452955538062,Charlestown,Q2CK-SNTB-WJWA,CHL-HIGHSCHOOL-AP2,"240 Medford St, Charlestown, MA 02129",42.3801186758107,-71.0610705944453, BCYF-Grant BPS Charlestown-High-School Outside ,2022/11/18 09:55:59+00,1,,,Outside,Charlestown High School,1
-7907045.55513843,5210860.08811236,N_568579452955537848,South Boston,Q2CK-LL7D-DRFS,SB-PERRY-AP2,"745 East 7th St., South Boston, MA",42.3321207672545,-71.0301987441018, BPS Outside Perry-School ,2022/11/18 09:55:58+00,1,BPS,,Outside,Perry School,2
-7907045.55513843,5210860.08811236,N_568579452955537848,South Boston,Q2CK-L6R4-HJGB,SB-PERRY-AP1,"745 E 7th St, South Boston, MA 02127",42.3321207672545,-71.0301987441018, recently-added ,2022/11/18 09:55:58+00,1,,,,,3
-7910482.19379852,5218090.54673119,N_568579452955538062,Charlestown,Q2CK-CWUY-RBGW,CHL-HIGHSCHOOL-AP1,"240 Medford St., Charlestown, MA",42.3801186758107,-71.0610705944453, BPS Charlestown-High-School Outside ,2022/11/18 09:55:59+00,1,BPS,,Outside,Charlestown High School,4
-7911344.9198002,5207976.53404644,N_568579452955534204,Dorchester,Q2CK-FQLH-FDJH,DOT-BPL-AP5,"63 Glendale St, Dorchester, MA",42.3129686634185,-71.0688205939785, BPL Outside Uphams-Corner-Branch ,2022/11/18 09:55:57+00,1,BPL,,Outside,Uphams Corner Branch,5
-7910482.19379852,5218090.54673119,N_568579452955538062,Charlestown,Q2CK-V3LS-5V65,CHL-BCYF-AP2,"240 Medford St, Charlestown, MA 02129",42.3801186758107,-71.0610705944453, BCYF BCYF-Grant Charlestown-Athletic-Building Outside ,2022/11/18 09:55:59+00,1,BCYF,,Outside,Charlestown Athletic Building,6
-7904346.26164797,5218988.75379076,N_601230550253966604,East Boston Senior Center,Q3AB-3QKN-ZC2L,EBSC-AP-2,"18 Barnes Avenue, East Boston, MA 02128",42.3860786782013,-71.0059505781137, Inside employee ,2022/11/18 09:56:34+00,1,,,Inside,employee,7
-7908681.04359801,5210972.71024671,N_568579452955537848,South Boston,Q2CK-LEG8-FAFN,SB-HIGHSCHOOL-AP2,"95 G St., South Boston, MA",42.3328686671197,-71.0448905869042, recently-added ,2022/11/18 09:55:58+00,1,,,,,8
-7907045.55513843,5210860.08811236,N_568579452955537848,South Boston,Q2CK-NLQZ-E2SP,SB-PERRY-AP3,"745 E 7th St, South Boston, MA 02127",42.3321207672545,-71.0301987441018, BPS Outside Perry-School ,2022/11/18 09:55:58+00,1,BPS,,Outside,Perry School,9
-7908681.04359801,5210972.71024671,N_568579452955537848,South Boston,Q2CK-D4R6-5UWB,SB-HIGHSCHOOL-AP3,"95 G St., South Boston, MA",42.3328686671197,-71.0448905869042, Outside South-Boston-High-School ,2022/11/18 09:55:58+00,1,,,Outside,South Boston High School,10
-7908681.04359801,5210972.71024671,N_568579452955537848,South Boston,Q2CK-LQCX-HR7J,SB-HIGHSCHOOL-AP1,95 G Street,42.3328686671197,-71.0448905869042, recently-added ,2022/11/18 09:55:58+00,1,,,,,11
-7917274.91028733,5199572.72397958,N_568579452955538316,Hyde Park,Q2CK-MJQD-GHYW,HP-BPL-AP1,"35 Harvard Ave., Hyde Park, MA - Roof North",42.2571186525548,-71.1220906048712, BPL Hyde-Park-Branch Outside ,2022/11/18 09:56:00+00,1,BPL,,Outside,Hyde Park Branch,12
-7917028.89413752,5199273.42372437,N_568579452955538316,Hyde Park,Q2CK-4SHS-VJAG,HP-BFD48-AP2,"60 Fairmont Ave., Hyde Park, MA",42.2551286509519,-71.1198806041961, BFD Engine-48 Outside ,2022/11/18 09:56:00+00,1,BFD,,Outside,Engine 48,13
-7917190.86400906,5199598.44308613,N_568579452955538316,Hyde Park,Q2AK-GPHE-YSR2,HP-CENTRAL-AP1,"26 Central Ave., Hyde Park, MA",42.2572896520292,-71.1213356043077, BPHC Hyde-Park Outside ,2022/11/18 09:56:00+00,1,,,Outside,Hyde Park,14
-7917521.57100408,5199367.78998436,N_568579452955538316,Hyde Park,Q2CK-BUXF-V896,HP-BPDE18-AP3,"1276 River St., Hyde Park, MA - Hyde Park Ave & River St",42.2557560845543,-71.1243063957897, BPD District E-18 Outside ,2022/11/18 09:56:00+00,1,BPD,,Outside,E 18,15
-7917274.91028733,5199572.72397958,N_568579452955538316,Hyde Park,Q2CK-53BW-3TB9,HP-BPL-AP2,"35 Harvard Ave., Hyde Park, MA - Roof South",42.2571186525548,-71.1220906048712, BPL Hyde-Park-Branch Outside ,2022/11/18 09:56:00+00,1,BPL,,Outside,Hyde Park Branch,16
-7917028.89413752,5199273.42372437,N_568579452955538316,Hyde Park,Q2AK-YCNF-9V29,HP-BFD48-AP1,"60 Fairmont Ave., Hyde Park, MA",42.2551286509519,-71.1198806041961, BFD Engine-48 Outside ,2022/11/18 09:56:00+00,1,BFD,,Outside,Engine 48,17
-7917511.80329518,5199475.67604279,N_568579452955538316,Hyde Park,Q2CK-ZJFC-GBK2,HP-BPDE18-AP1,"1249 Hyde Park Ave., Hyde Park, MA",42.2564734025513,-71.1242186509677, BPD District-E-18 Outside ,2022/11/18 09:56:00+00,1,BPD,,Outside,District E 18,18
-7912099.62872001,5205541.1211244,N_568579452955534204,Dorchester,Q2CK-9ECJ-KEVB,DOT-HOLMES-AP2,"40 School St, Dorchester",42.2967885000962,-71.0756002595557, BPS Holmes-Elementary-School Outside ,2022/11/18 09:55:57+00,1,BPS,,Outside,Holmes Elementary School,19
-7912099.62872001,5205541.1211244,N_568579452955534204,Dorchester,Q2CK-H64X-BT93,DOT-HOLMES-AP1,"40 School St., Dorchester, MA",42.2967885000962,-71.0756002595557, BPS Holmes-Elementary-School Outside ,2022/11/18 09:55:57+00,1,BPS,,Outside,Holmes Elementary School,20
-7911607.53118285,5205990.83337966,N_568579452955534204,Dorchester,Q2CK-649C-9H26,DOT-MARSHALL-AP1,"35 Westville St., Dorchester, MA",42.2997765683813,-71.0711796721667, BPS Marshall-School Outside UP-Academy ,2022/11/18 09:55:57+00,1,BPS,,Outside,Marshall School UP Academy,21
-7911905.79471037,5206870.06566328,N_568579452955534204,Dorchester,Q2CK-ERFW-VHQX,DOT-HOLLAND-AP2,"85 Olney St., Dorchester, MA",42.3056181301162,-71.0738590190213, BCYF Holland-Comm-Center Outside ,2022/11/18 09:55:57+00,1,BCYF,,Outside,Holland Comm Center,22
-7911206.88338086,5208249.01136844,N_568579452955534204,Dorchester,Q2CK-CVPA-TEUV,DOT-BPL-AP2,"500 Columbia Rd., Dorchester, MA",42.3147786635241,-71.0675805917259, BPL Outside Uphams-Corner-Branch ,2022/11/18 09:55:57+00,1,BPL,,Outside,Uphams Corner Branch,23
-7911206.88338086,5208249.01136844,N_568579452955534204,Dorchester,Q2CK-U4G7-7P78,DOT-BPL-AP4,"500 Columbia Rd., Dorchester, MA",42.3147786635241,-71.0675805917259, BPL Outside Uphams-Corner-Branch recently-added ,2022/11/18 09:55:57+00,1,BPL,,Outside,Uphams Corner Branch,24
-7910723.20873405,5208784.59637099,N_568579452955534204,Dorchester,Q2CK-G9M2-VTK4,DOT-BFD21-AP2,"641 Columbia Rd., Dorchester, MA",42.3183362717841,-71.0632356684482, BFD Engine-21 Outside ,2022/11/18 09:55:57+00,1,BFD,,Outside,Engine 21,25
-7910476.25588518,5207288.2796015,N_568579452955534204,Dorchester,Q2CK-NJQU-RB55,DOT-MATHER-AP3,"24 Parrish St, Dorchester",42.3083965259321,-71.0610172532622, recently-added ,2022/11/18 09:55:57+00,1,,,,,26
-7912662.29697881,5205506.83478198,N_568579452955534204,Dorchester,Q2CK-HALC-MWBH,DOT-GREENWOOD-AP1,"189 Glenway St., Dorchester, MA",42.2965606820921,-71.0806547945235, BPS Greenwood-School Outside ,2022/11/18 09:55:57+00,1,BPS,,Outside,Greenwood School,27
-7911206.88338086,5208249.01136844,N_568579452955534204,Dorchester,Q2CK-CXHG-U3Q7,DOT-BPL-AP3,"500 Columbia Rd., Dorchester, MA",42.3147786635241,-71.0675805917259, BPL Outside Uphams-Corner-Branch ,2022/11/18 09:55:57+00,1,BPL,,Outside,Uphams Corner Branch,28
-7912662.29697881,5205506.83478198,N_568579452955534204,Dorchester,Q2CK-HPSU-2K3Q,DOT-GREENWOOD-AP2,"189 Glenway Street, Dorchester, MA",42.2965606820921,-71.0806547945235, BPS Greenwood-School Outside ,2022/11/18 09:55:57+00,1,BPS,,Outside,Greenwood School,29
-7910723.20873405,5208784.59637099,N_568579452955534204,Dorchester,Q2CK-H48M-P2E9,DOT-BFD21-AP3,"641 Columbia Rd., Dorchester, MA",42.3183362717841,-71.0632356684482, BFD Engine-21 Outside ,2022/11/18 09:55:57+00,1,BFD,,Outside,Engine 21,30
-7910280.65980598,5205720.29651539,N_568579452955534204,Dorchester,Q2CK-NE73-ZSQB,DOT-BPDC11-AP1,"40 Gibson st, Dorchester, ma",42.2979790301264,-71.0592601837876, recently-added ,2022/11/18 09:55:57+00,1,,,,,31
-7910723.20873405,5208784.59637099,N_568579452955534204,Dorchester,Q2CK-ZRF5-JNQU,DOT-BFD21-AP1,"641 Columbia Rd., Dorchester, MA",42.3183362717841,-71.0632356684482, BFD Engine-21 Outside ,2022/11/18 09:55:57+00,1,BFD,,Outside,Engine 21,32
-7911206.88338086,5208249.01136844,N_568579452955534204,Dorchester,Q2CK-J2D4-6Y8J,DOT-BPL-AP6,"500 Columbia road, Dorchester, ma",42.3147786635241,-71.0675805917259, BPL Outside Uphams-Corner-Branch ,2022/11/18 09:55:57+00,1,BPL,,Outside,Uphams Corner Branch,33
-7922403.4012907,5213746.74922485,N_568579452955538703,Alston Brighton,Q2AK-HEMW-CKJN,AB-OAKSQUARE-AP1,"425 Faneuil St., Brighton, MA",42.3512876680804,-71.1681606233992, BFD Engine-51 Outside ,2022/11/18 09:56:01+00,1,BFD,,Outside,Engine 51,34
-7919879.78750683,5213415.52069041,N_568579452955538703,Alston Brighton,Q2CK-SA2P-MX2R,AB-BRIGHTON-HIGH-AP3,"25 Warren St, Brighton, MA 02135",42.3490886680621,-71.1454906150665, BCYF-Grant BPS Brighton-High-School Outside ,2022/11/18 09:56:01+00,1,,,Outside,Brighton High School,35
-7919012.60875363,5213862.88533179,N_568579452955538703,Alston Brighton,Q2AK-PKLP-V45Q,AB-JACKSON-AP1,"40 Armington St., Allston, MA",42.3520586682847,-71.1377006157859, BPS Jackson-Mann-School Outside ,2022/11/18 09:56:01+00,1,BPS,,Outside,Jackson Mann School,36
-7917511.80329518,5199475.67604279,N_568579452955538316,Hyde Park,Q2CK-NERF-4JX7,HP-BPDE18-AP2,"1249 Hyde Park Ave., Hyde Park, MA",42.2564734025513,-71.1242186509677, recently-added ,2022/11/18 09:56:00+00,1,,,,,37
-7919879.78750683,5213415.52069041,N_568579452955538703,Alston Brighton,Q2CK-SVB3-JPWM,AB-BRIGHTON-HIGH-AP2,"25 Warren St, Brighton, MA 02135",42.3490886680621,-71.1454906150665, BCYF-Grant BPS Brighton-High-School Outside ,2022/11/18 09:56:01+00,1,,,Outside,Brighton High School,38
-7919879.78750683,5213415.52069041,N_568579452955538703,Alston Brighton,Q2CK-SRAD-M7DC,AB-BRIGHTON-HIGH-AP1,"25 Warren St, Brighton, MA 02135",42.3490886680621,-71.1454906150665, BCYF-Grant BPS Brighton-High-School Outside ,2022/11/18 09:56:01+00,1,,,Outside,Brighton High School,39
-7914741.27809876,5208917.44177196,N_579275502070532581,Roxbury,Q2CK-GUWZ-2YNU,ROX-BRAGDON-AP1,"85 Bragdon St., Roxbury MA",42.3192186624804,-71.0993305996779, EOC Outside ,2022/11/18 09:56:02+00,1,,,Outside,EOC,40
-7911615.9085629,5209958.63518912,N_579275502070532581,Roxbury,Q2CK-HM2N-KPSM,ROX-MASON-AP2,"150 Norfolk Ave., Roxbury, MA",42.3261340878442,-71.071254927452, recently-added ,2022/11/18 09:56:02+00,1,,,,,41
-7912078.0921556,5207387.69729827,N_579275502070532581,Roxbury,Q2CK-FC84-AQTJ,ROX-FREDERICK-AP2,"270 Columbia Rd., Dorchester, MA",42.309056987344,-71.075406793306, BPS Frederick-Pilot-School Outside ,2022/11/18 09:56:02+00,1,BPS,,Outside,Frederick Pilot School,42
-7913800.57146551,5210829.50780903,N_579275502070532581,Roxbury,Q2CK-SSY2-PBYW,ROX-Madison Park-HS-AP1,"75 Malcolm X Blvd, Boston, MA 02120",42.3319176883679,-71.0908800882127, recently-added ,2022/11/18 09:56:02+00,1,,,,,43
-7913221.0245258,5210306.24979136,N_579275502070532581,Roxbury,Q2CK-NU67-LP8V,ROX-BPDB2-AP1,"2400 Washington St., Roxbury, MA - Right Front Side Roof Facing Dudley MBTA",42.3284427142527,-71.0856739294746, BPD District-B-2 Outside ,2022/11/18 09:56:02+00,1,BPD,,Outside,District B 2,44
-7912356.6389058,5210582.18137717,N_579275502070532581,Roxbury,Q2CK-ZWAD-LVEM,ROX-ORCHARD-AP1,"906 Albany St., Roxbury, MA",42.330275209131,-71.0779090213365, BPS Orchard-Garden-School Outside ,2022/11/18 09:56:02+00,1,BPS,,Outside,Orchard Garden School,45
-7912341.08227608,5209015.91251964,N_579275502070532581,Roxbury,Q2CK-6JQN-FZR8,ROX-WINTHROP-AP4,"Waverley & Blue Hill Ave., Roxbury, MA",42.3198727205825,-71.0777692737539, BPS Outside Winthrop-School ,2022/11/18 09:56:02+00,1,BPS,,Outside,Winthrop School,46
-7914566.17244166,5208795.9466497,N_579275502070532581,Roxbury,Q2CK-XD4N-QHUN,BFD-E42-AP1,"1870 Columbus Ave., Roxbury, MA",42.3184116635137,-71.0977575987968, BFD Engine-42 Outside recently-added ,2022/11/18 09:56:02+00,1,BFD,,Outside,Engine 42,47
-7912857.67341424,5210362.52176549,N_579275502070532581,Roxbury,Q2CK-MR56-4QY6,ROX-BFDE14-AP2,"174 Dudley St., Roxbury, MA - Front Roof Facing Dudley St",42.3288164275404,-71.0824098909045, BFD Engine-14 Outside ,2022/11/18 09:56:02+00,1,BFD,,Outside,Engine 14,48
-7911615.9085629,5209958.63518912,N_579275502070532581,Roxbury,Q2CK-F2BB-S6RY,ROX-MASON-AP1,"150 Norfolk Ave., Roxbury, MA",42.3261340878442,-71.071254927452, recently-added ,2022/11/18 09:56:02+00,1,,,,,49
-7912857.67341424,5210362.52176549,N_579275502070532581,Roxbury,Q2CK-SDQD-U3MQ,ROX-BFDE14-AP1,"174 Dudley St., Roxbury, MA - Rear Roof Facing Palmer Street",42.3288164275404,-71.0824098909045, BFD Engine-14 Outside ,2022/11/18 09:56:02+00,1,BFD,,Outside,Engine 14,50
-7913720.91942806,5209401.49372063,N_579275502070532581,Roxbury,Q2CK-DPQP-RN6X,ROX-SHELBURNE-AP2,"2730 Washington St., Roxbury, MA",42.3224337457746,-71.0901645617862, BCYF/BPL Outside Shelbourne-Comm-Center ,2022/11/18 09:56:02+00,1,BCYF,BPL,Outside,Shelbourne Comm Center,51
-7913221.0245258,5210306.24979136,N_579275502070532581,Roxbury,Q2CK-NQHH-62DH,ROX-BPDB2-AP2,"2400 Washington St., Roxbury, MA - Left Side Rear Roof Facing Dudley & Washington",42.3284427142527,-71.0856739294746, BPD District-B-2 Outside ,2022/11/18 09:56:02+00,1,BPD,,Outside,District B 2,52
-7914608.80797745,5210874.83016337,N_579275502070532581,Roxbury,Q2CK-SARQ-LX6F,ROX-Tobin-BCYF-AP1,"1481 Tremont St, Roxbury Crossing, MA 02120",42.332218666615,-71.0981406003313, BCYF BCYF-Grant Outdoor Tobin-Comm-Center ,2022/11/18 09:56:02+00,1,BCYF,,,Tobin Comm Center,53
-7914566.17244166,5208795.9466497,N_579275502070532581,Roxbury,Q2CK-2D9P-VKGR,ROX-BFDE42-AP1,"1870 Columbus Ave., Roxbury, MA",42.3184116635137,-71.0977575987968, BFD Engine-42 Outside ,2022/11/18 09:56:02+00,1,BFD,,Outside,Engine 42,54
-7913720.91942806,5209401.49372063,N_579275502070532581,Roxbury,Q2CK-NU6F-VDER,ROX-SHELBURNE-AP1,"2730 Washington St., Roxbury, MA",42.3224337457746,-71.0901645617862, BCYF/BPL Outside Shelbourne-Comm-Center ,2022/11/18 09:56:02+00,1,BCYF,BPL,Outside,Shelbourne Comm Center,55
-7912222.88106393,5210060.51558676,N_579275502070532581,Roxbury,Q2CK-MP2Y-FAUQ,ROX-VINE-AP2,"339 Dudley St, Roxbury",42.3268107188774,-71.0767074541993, recently-added ,2022/11/18 09:56:02+00,1,,,,,56
-7913316.02232867,5208591.87886588,N_579275502070532581,Roxbury,Q2CK-DFHP-VUSX,ROX-BLA-AP3,"Humbolt & Townsend St., Roxbury, MA",42.3170561743609,-71.0865273092574, BPS Boston-Latin-Academy Outside ,2022/11/18 09:56:02+00,1,BPS,,Outside,Boston Latin Academy,57
-7912078.0921556,5207387.69729827,N_579275502070532581,Roxbury,Q2CK-74V2-BS4Q,ROX-FREDERICK-AP1,"270 Columbia Rd., Dorchester, MA",42.309056987344,-71.075406793306, BPS Frederick-Pilot-School Outside ,2022/11/18 09:56:02+00,1,BPS,,Outside,Frederick Pilot School,58
-7913800.57146551,5210829.50780903,N_579275502070532581,Roxbury,Q2CK-SQTZ-N3W3,ROX-Madison Park-HS-AP2,"75 Malcolm X Blvd, Boston, MA 02120",42.3319176883679,-71.0908800882127, recently-added ,2022/11/18 09:56:02+00,1,,,,,59
-7912348.44959097,5208774.26742057,N_579275502070532581,Roxbury,Q2CK-7AFY-YUJ9,ROX-WINTHROP-AP5,"Woodbine and Blue Hill Ave., Roxbury, MA",42.3182676639245,-71.0778354554697, BPS Outside Winthrop-School ,2022/11/18 09:56:02+00,1,BPS,,Outside,Winthrop School,60
-7912772.09617308,5207056.91195012,N_579275502070532581,Roxbury,Q2CK-NFVJ-3N86,ROX-BURKE-AP1,"60 Washington St.
Dorchester, MA 02121",42.3068594547874,-71.0816411374674, BPS Jeremiah-Burke-School Outside ,2022/11/18 09:56:02+00,1,BPS,,Outside,Jeremiah Burke School,61
-7914566.17244166,5208795.9466497,N_579275502070532581,Roxbury,Q2CK-CX6Z-DWFB,,"1870 Columbus Ave., Roxbury, MA",42.3184116635137,-71.0977575987968, BFD Engine-42 Outside ,2022/11/18 09:56:02+00,1,BFD,,Outside,Engine 42,62
-7912356.6389058,5210582.18137717,N_579275502070532581,Roxbury,Q2CK-HDFV-VYBC,ROX-ORCHARD-AP2,"906 Albany St., Roxbury, MA",42.330275209131,-71.0779090213365, BPS Orchard-Garden-School Outside recently-added ,2022/11/18 09:56:02+00,1,BPS,,Outside,Orchard Garden School,63
-7912356.6389058,5210582.18137717,N_579275502070532581,Roxbury,Q2CK-VQ39-UL8G,ROX-ORCHARD-AP3,"906 Albany St., Roxbury, MA",42.330275209131,-71.0779090213365, BPS Orchard-Garden-School Outside ,2022/11/18 09:56:02+00,1,BPS,,Outside,Orchard Garden School,64
-7912222.88106393,5210060.51558676,N_579275502070532581,Roxbury,Q2CK-ZXL4-AYZP,ROX-VINE-AP1,"339 Dudley St, Roxbury",42.3268107188774,-71.0767074541993, recently-added ,2022/11/18 09:56:02+00,1,,,,,65
-7912772.09617308,5207056.91195012,N_579275502070532581,Roxbury,Q2CK-NNVA-2639,ROX-BURKE-AP2,"60 Washington St.
Dorchester, MA 02121",42.3068594547874,-71.0816411374674, BPS Jeremiah-Burke-School Outside ,2022/11/18 09:56:02+00,1,BPS,,Outside,Jeremiah Burke School,66
-7912508.81048186,5210323.61847167,N_579275502070532581,Roxbury,Q2CK-NF7G-GS7K,ROX-BFDE14-AP4,"Dudley St and Mt Pleasant Ave., Roxbury, MA",42.3285580633239,-71.0792760018623, BFD Engine-14 Outside ,2022/11/18 09:56:02+00,1,BFD,,Outside,Engine 14,67
-7914566.17244166,5208795.9466497,N_579275502070532581,Roxbury,Q2CK-BX25-DLJ2,BFD-E42-AP2,"1870 Columbus Ave., Roxbury, MA",42.3184116635137,-71.0977575987968, BFD Engine-42 Outside recently-added ,2022/11/18 09:56:02+00,1,BFD,,Outside,Engine 42,68
-7912153.10721875,5207163.39538306,N_579275502070532581,Roxbury,Q2CK-64RA-6G66,ROX-FREDERICK-AP3,"Devon & Columbia Rd, Dorchester, MA",42.3075668730015,-71.0760806650837, BPS Frederick-Pilot-School Outside ,2022/11/18 09:56:02+00,1,BPS,,Outside,Frederick Pilot School,69
-7912303.28873202,5210199.43720343,N_579275502070532581,Roxbury,Q2CK-5FW6-RS9C,ROX-VINE-AP5,"Dudley and Adams St., Roxbury, MA",42.3277333446658,-71.0774297685712, BCYF/BPL Outside Vine-St-Comm-Center recently-added ,2022/11/18 09:56:02+00,1,BCYF,BPL,Outside,Vine St Comm Center,70
-7913221.0245258,5210306.24979136,N_579275502070532581,Roxbury,Q2CK-NPJ9-EDSZ,ROX-BPDB2-AP3,"2400 Washington St., Roxbury, MA - Left Side Facing Bartlett St",42.3284427142527,-71.0856739294746, BPD District-B-2 Outside ,2022/11/18 09:56:02+00,1,BPD,,Outside,District B 2,71
-7911796.87684114,5209566.34663052,N_579275502070532581,Roxbury,Q2CK-NM86-CUTL,ROX-EMERSON-AP2,"6 SHIRLEY ST
 ROXBURY, MA 02119",42.3235286647916,-71.0728805931549, recently-added ,2022/11/18 09:56:02+00,1,,,,,72
-7913800.57146551,5210829.50780903,N_579275502070532581,Roxbury,Q2CK-SU8N-5VU8,ROX-Madison Park-HS-AP3,"75 Malcolm X Blvd, Boston, MA 02120",42.3319176883679,-71.0908800882127, recently-added ,2022/11/18 09:56:02+00,1,,,,,73
-7917899.44707971,5203994.95053004,N_601230550253961252,Roslindale,Q2CK-5TD4-6S66,ROS-COMMUNITY-AP1,"6 Cummings Highway, Roslindale, MA",42.2865140418411,-71.1277009143321, BCYF/BPL Outside Roslindale-Comm-Center ,2022/11/18 09:56:03+00,1,BCYF,BPL,Outside,Roslindale Comm Center,74
-7918007.38443269,5203860.20018636,N_601230550253961252,Roslindale,Q2CK-7FHC-97HP,ROS-BPL-AP2,"4246 Washington St., Roslindale MA",42.2856185329317,-71.1286705320712, BPL Outside Roslindale-branch ,2022/11/18 09:56:03+00,1,BPL,,Outside,Roslindale branch,75
-7917899.44707971,5203994.95053004,N_601230550253961252,Roslindale,Q2CK-NLJC-KT9P,ROS-COMMUNITY-AP4,"6 cummins highway, Roslindale, ma",42.2865140418411,-71.1277009143321, BCYF Flaherty-Pool Outside ,2022/11/18 09:56:03+00,1,BCYF,,Outside,Flaherty Pool,76
-7917899.44707971,5203994.95053004,N_601230550253961252,Roslindale,Q2CK-6PU6-G499,ROS-COMMUNITY-AP2,"6 Cummings Highway, Roslindale, MA",42.2865140418411,-71.1277009143321, BCYF/BPL Outside Roslindale-Comm-Center ,2022/11/18 09:56:03+00,1,BCYF,BPL,Outside,Roslindale Comm Center,77
-7918007.38443269,5203860.20018636,N_601230550253961252,Roslindale,Q2CK-6V2L-TCDF,ROS-BPL-AP1,"4246 Washington St., Roslindale MA",42.2856185329317,-71.1286705320712, BPL Outside Roslindale-branch ,2022/11/18 09:56:03+00,1,BPL,,Outside,Roslindale branch,78
-7908004.05860206,5216720.37125784,N_601230550253961436,East Boston,Q2CK-N6MC-XFPQ,EB-BPDA7-AP3,"69 Paris Street, East Boston",42.3710258637724,-71.0388091272144, recently-added ,2022/11/18 09:56:07+00,1,,,,,79
-7907994.31356349,5216273.74709104,N_601230550253961436,East Boston,Q2EK-N2DB-5PSX,EB-ENGINE9-AP1,"239 Sumner St, Boston, MA 02128",42.3680616745087,-71.0387215860435, BFD E-Boston-Main-Street Engine-9 Outside ,2022/11/18 09:56:07+00,1,BFD,,Outside,E Boston Main Street Engine 9,80
-7908004.05860206,5216720.37125784,N_601230550253961436,East Boston,Q2CK-ZYHQ-FVKG,EB-BPDA7-AP1,"69 Paris Street, East Boston",42.3710258637724,-71.0388091272144, BPD District-A-7 E-Boston-Main-Street Outside ,2022/11/18 09:56:07+00,1,BPD,,Outside,District A 7 E Boston Main Street,81
-7907934.08964348,5216909.14299728,N_601230550253961436,East Boston,Q2CK-NU9A-QWKC,EB-10GOVE-AP2,"10 Gove St, Boston, MA 02128, USA",42.3722786763649,-71.0381805853654, E-Boston-Main-Street June2016 Outside Private-residence ,2022/11/18 09:56:07+00,1,,,Outside,E Boston Main Street Private residence,82
-7912222.88106393,5210060.51558676,N_579275502070532581,Roxbury,Q2CK-NJTU-PZA7,ROX-VINE-AP4,"339 Dudley St, Roxbury",42.3268107188774,-71.0767074541993, recently-added ,2022/11/18 09:56:02+00,1,,,,,83
-7907994.31356349,5216273.74709104,N_601230550253961436,East Boston,Q2CK-DR2X-L8TF,EB-ENGINE9-AP2,"239 Sumner St., East Boston, MA - Left front on Station",42.3680616745087,-71.0387215860435, BFD E-Boston-Main-Street Engine-9 Outside ,2022/11/18 09:56:07+00,1,BFD,,Outside,E Boston Main Street Engine 9,84
-7908004.05860206,5216720.37125784,N_601230550253961436,East Boston,Q2CK-D66G-X9MY,EB-BPDA7-AP4,"69 Paris St., East Boston, MA - Right back pointing towards Maverick St",42.3710258637724,-71.0388091272144, BPD District-A-7 E-Boston-Main-Street Outside ,2022/11/18 09:56:07+00,1,BPD,,Outside,District A 7 E Boston Main Street,85
-7907904.36757913,5216553.24360091,N_601230550253961436,East Boston,Q2CK-NQEV-RYEW,EB-154MAVERICK-AP1,"154 Maverick St, East Boston MA",42.3699166745967,-71.0379135875185, E-Boston-Main-Street June2016 Outside Private-residence recently-added ,2022/11/18 09:56:07+00,1,,,Outside,E Boston Main Street Private residence,86
-7907934.08964348,5216909.14299728,N_601230550253961436,East Boston,Q2CK-NPNU-ZQAD,EB-10GOVE-AP1,"10 Gove St, Boston, MA 02128, USA",42.3722786763649,-71.0381805853654, E-Boston-Main-Street June2016 Outside Private-residence ,2022/11/18 09:56:07+00,1,,,Outside,E Boston Main Street Private residence,87
-7908004.05860206,5216720.37125784,N_601230550253961436,East Boston,Q2CK-L58U-SANP,EB-BPDA7-AP2,"69 Paris Street, East Boston",42.3710258637724,-71.0388091272144, recently-added ,2022/11/18 09:56:07+00,1,,,,,88
-7909415.65290541,5210401.8362696,N_601230550253961607,Maintenance,Q2CK-LPZ2-AE76,SB-OLLIE-AP1,"1187 Columbia Rd., South Boston, MA - roof ridge end of building",42.3290775216049,-71.0514896945912, recently-added ,2022/11/18 09:56:09+00,1,,,,,89
-7910531.5043242,5206833.9936689,N_601230550253961607,Maintenance,Q2CK-FBVU-CKYV,DOT-LINDEN-AP1,"Linden and Adams St., Dorchester, MA",42.3053784808087,-71.0615135584342, Linden Outside recently-added ,2022/11/18 09:56:09+00,1,,,Outside,Linden,90
-7917167.62889934,5199533.87918636,N_601230550253961607,Maintenance,Q2AK-ZNJ8-36SL,HP-COMMUNITY-AP2,"Winthrop St and  Central Ave., Hyde Park, MA",42.2568603830141,-71.1211268797659, Hyde-Park Outside recently-added ,2022/11/18 09:56:09+00,1,,,Outside,Hyde Park,91
-7910747.13367697,5206581.15155029,N_601230550253961607,Maintenance,Q2CK-GUKH-WDPW,DOT-MTIDA-AP1,"97 mount ida road, Dorchester, ma",42.3036986634492,-71.0634505898672, Mt-Ida-Rd Outside Parks recently-added ,2022/11/18 09:56:09+00,1,,,Outside,Mt Ida Rd,92
-7910560.10607368,5206144.54977923,N_601230550253961607,Maintenance,Q2CK-MP74-GD6W,DOT-CLEVELAND-AP2,"11 Charles St, Dorchester",42.3007978891716,-71.0617704923213, recently-added ,2022/11/18 09:56:09+00,1,,,,,93
-7911796.87684114,5209566.34663052,N_601230550253961607,Maintenance,Q2CK-MWWP-8A2C,ROX-EMERSON-AP1,"6 SHIRLEY ST
 ROXBURY, MA 02119",42.3235286647916,-71.0728805931549, recently-added ,2022/11/18 09:56:09+00,1,,,,,94
-7909492.89574894,5215210.41354318,N_601230550253961607,Maintenance,Q2CK-NDET-JQ35,CP-COLUMBUS-AP1,"110 Atlantic Ave, Boston, MA",42.361003898533,-71.0521835788605, Columbus-Park Outside Parks recently-added ,2022/11/18 09:56:09+00,1,,,Outside,Columbus Park,95
-7908559.73840533,5210620.31456858,N_601230550253961607,Maintenance,Q2CK-NAN3-468N,SB-GSTREET-AP4,"1406 Columbia Rd., South Boston, MA - streetlight at G Street and Harborwalk",42.330528452047,-71.0438008838179, recently-added ,2022/11/18 09:56:09+00,1,,,,,96
-7912997.17250358,5210563.16541154,N_601230550253961809,Bolling,Q2FD-3Q7F-9C4J,BOL-FOYER-AP1,"2300 Washington St., Roxbury 02119",42.3301489235268,-71.0836630325452, Bolling CoB-Employee Inside ,2022/11/18 09:56:10+00,1,,,Inside,CoB Employee,97
-7912997.17250358,5210563.16541154,N_601230550253961809,Bolling,Q2FD-DQJY-R4K6,BOL-FOYER-AP2,"2300 Washington St., Roxbury 02119",42.3301489235268,-71.0836630325452, Bolling CoB-Employee Inside ,2022/11/18 09:56:10+00,1,,,Inside,CoB Employee,98
-7912997.17250358,5210563.16541154,N_601230550253961809,Bolling,Q2FD-3YYZ-LW7E,BOL-PUBLOBBY-AP1,"2300 Washington St., Roxbury 02119",42.3301489235268,-71.0836630325452, Bolling Inside ,2022/11/18 09:56:10+00,1,,,Inside,Bolling,99
-7912997.17250358,5210563.16541154,N_601230550253961809,Bolling,Q2FD-6RML-C4S6,BOL-SCHLOBBY-AP1,"2300 Washington St., Roxbury 02119",42.3301489235268,-71.0836630325452, Bolling CoB-Employee Inside ,2022/11/18 09:56:10+00,1,,,Inside,CoB Employee,100
-7912997.17250358,5210563.16541154,N_601230550253961809,Bolling,Q2FD-MTWE-FN62,BOL-WELCOMELOBBY-AP1,"2300 Washington St., Roxbury 02119",42.3301489235268,-71.0836630325452, Bolling CoB-Employee Inside ,2022/11/18 09:56:10+00,1,,,Inside,CoB Employee,101
-7913720.91942806,5209401.49372063,N_601230550253962329,BCYF Indoor,Q2JD-UQKQ-B9LG,BCYF-Shelbourne-AP1,"2730 Washington St, Roxbury, MA - large meeting room",42.3224337457746,-71.0901645617862, BCYF BCYF-Grant Inside Roxbury Shelburne ,2022/11/18 09:56:15+00,1,BCYF,,Inside,Roxbury Shelburne,102
-7917899.44707971,5203994.95053004,N_601230550253962329,BCYF Indoor,Q2JD-XNJC-E9DV,BCYF-Roslindale-AP1,"6 Cummins Highway, Roslindale, MA - Meeting room",42.2865140418411,-71.1277009143321, BCYF BCYF-Grant Inside Roslindale ,2022/11/18 09:56:15+00,1,BCYF,,Inside,Roslindale,103
-7910482.19379852,5218090.54673119,N_601230550253962329,BCYF Indoor,Q2JD-UTKP-YWHB,BCYF-Charlestown-AP1,"240 Medford St., Charlestown, MA - meeting room",42.3801186758107,-71.0610705944453, BCYF BCYF-Grant Charlestown Inside ,2022/11/18 09:56:15+00,1,BCYF,,Inside,Charlestown,104
-7917899.44707971,5203994.95053004,N_601230550253962329,BCYF Indoor,Q2JD-XLEC-WCDN,BCYF-Roslindale-AP3,"6 Cummins Highway, Roslindale, MA - room 205 teen room",42.2865140418411,-71.1277009143321, BCYF BCYF-Grant Inside Roslindale ,2022/11/18 09:56:15+00,1,BCYF,,Inside,Roslindale,105
-7910482.19379852,5218090.54673119,N_601230550253962329,BCYF Indoor,Q2JD-VTCK-Y2SH,BCYF-Charlestown-AP2,"240 Medford St., Charlestown, MA - Admin office",42.3801186758107,-71.0610705944453, BCYF BCYF-Grant Charlestown Inside ,2022/11/18 09:56:15+00,1,BCYF,,Inside,Charlestown,106
-7917899.44707971,5203994.95053004,N_601230550253962329,BCYF Indoor,Q2JD-URL9-7FSE,BCYF-Roslindale-AP2,"6 Cummins Highway, Roslindale, MA - Room 108 after school room",42.2865140418411,-71.1277009143321, BCYF BCYF-Grant Inside Roslindale ,2022/11/18 09:56:15+00,1,BCYF,,Inside,Roslindale,107
-7913720.91942806,5209401.49372063,N_601230550253962329,BCYF Indoor,Q2JD-VSFG-ZKNW,BCYF-Shelbourne-AP2,"2730 Washington St, Roxbury, MA - Game room (Teen room)",42.3224337457746,-71.0901645617862, BCYF BCYF-Grant Inside Roxbury Shelburne ,2022/11/18 09:56:15+00,1,BCYF,,Inside,Roxbury Shelburne,108
-7916494.62373062,5207354.5853439,N_601230550253962329,BCYF Indoor,Q2JD-XRZM-K84X,BCYF-Curtis-Hall-AP3,"20 South Street, Jamaica Plain, MA - Room 108 supervisor",42.3088370155248,-71.1150811714723, BCYF BCYF-Grant Curtis Inside Jamaica-Plain ,2022/11/18 09:56:15+00,1,BCYF,,Inside,Jamaica Plain,109
-7910170.50504409,5215104.91233797,N_601230550253962397,Main Streets Staging,Q2CK-H4JE-2BSE,,"1 city hall plaza, boston, ma",42.3603036010139,-71.0582706467254, CITYHALL OUTSIDE recently-added ,2022/11/18 09:56:16+00,1,,,Outside,CITYHALL OUTSIDE,110
-7916421.18137263,5207616.20143762,N_601230550253962845,Jamaica Plain,Q2CK-NLSB-E9TE,JP-BFDE28-AP3,"746 Centre Street, Jamaica Plain",42.3105749822276,-71.1144214275456, recently-added ,2022/11/18 09:56:17+00,1,,,,,111
-7916494.62373062,5207354.5853439,N_601230550253962845,Jamaica Plain,Q2CK-SPCX-L9G6,JP-Curtis Hall-BCYF-AP1,"20 South St, Jamaica Plain, MA 02130",42.3088370155248,-71.1150811714723, BCYF BCYF-Grant Curtis-Hall Outside ,2022/11/18 09:56:17+00,1,BCYF,,Outside,Curtis Hall,112
-7916421.18137263,5207616.20143762,N_601230550253962845,Jamaica Plain,Q2CK-NER6-DHDA,JP-BFDE28-AP1,"746 Centre Street, Jamaica Plain",42.3105749822276,-71.1144214275456, recently-added ,2022/11/18 09:56:17+00,1,,,,,113
-7916421.18137263,5207616.20143762,N_601230550253962845,Jamaica Plain,Q2CK-NLUC-P9T6,JP-BFDE28-AP2,"746 Centre Street, Jamaica Plain",42.3105749822276,-71.1144214275456, recently-added ,2022/11/18 09:56:17+00,1,,,,,114
-7916494.62373062,5207354.5853439,N_601230550253962845,Jamaica Plain,Q2CK-LHCB-ZA9D,JP-Curtis Hall-BCYF-AP2,"20 South St, Jamaica Plain, MA 02130",42.3088370155248,-71.1150811714723, BCYF Centre-South-Main-Street Curtis-Hall Outside ,2022/11/18 09:56:17+00,1,BCYF,,Outside,Centre South Main Street Curtis Hall,115
-7916576.9372452,5207219.35909843,N_601230550253962845,Jamaica Plain,Q2CK-L8D3-H68P,JP-Curtis Hall-BCYF-AP3,"55 South St, Jamaica Plain",42.3079386624069,-71.1158206063547, Centre-South-Main-Street Lightpole Outside ,2022/11/18 09:56:17+00,1,,,Outside,Centre South Main Street,116
-7911026.54562431,5208426.65261463,N_601230550253965255,Strand Theatre - External,Q2QD-428C-NVTB,Strand_Centered above external set of doors,"543 Columbia Road Boston, MA 02125",42.315958662778,-71.0659605900958, Outside ,2022/11/18 09:56:31+00,1,,,Outside,,117
-7911026.54562431,5208426.65261463,N_601230550253965255,Strand Theatre - External,Q2QD-42EC-LQ5Z,Strand_Marquee support left,"543 Columbia Road Boston, MA 02125",42.315958662778,-71.0659605900958, Outside ,2022/11/18 09:56:31+00,1,,,Outside,,118
-7911026.54562431,5208426.65261463,N_601230550253965255,Strand Theatre - External,Q2QD-86JE-GS2B,Strand_Marquee support right,"543 Columbia Road
Boston, MA 02125",42.315958662778,-71.0659605900958, Outside ,2022/11/18 09:56:31+00,1,,,Outside,,119
-7911026.54562431,5208426.65261463,N_601230550253965256,Strand Theatre - Internal,Q2KD-6HAC-QJAE,Strand_Orchestra lobby_AP2,"543 Columbia Rd, Boston, MA 02125",42.315958662778,-71.0659605900958, Inside ,2022/11/18 09:56:32+00,1,,,Inside,,120
-7911026.54562431,5208426.65261463,N_601230550253965256,Strand Theatre - Internal,Q2KD-JUWB-SVBB,Strand_Camera room theatre wall ,"543 Columbia Rd, Boston, MA 02125",42.315958662778,-71.0659605900958, Inside ,2022/11/18 09:56:32+00,1,,,Inside,,121
-7911026.54562431,5208426.65261463,N_601230550253965256,Strand Theatre - Internal,Q2KD-363A-MRZV,Strand_Camera room office left,"543 Columbia Rd, Boston, MA 02125",42.315958662778,-71.0659605900958, Inside ,2022/11/18 09:56:32+00,1,,,Inside,,122
-7911026.54562431,5208426.65261463,N_601230550253965256,Strand Theatre - Internal,Q2LD-ENHA-3CRX,Strand_F.O.H,"543 Columbia Rd, Boston, MA 02125",42.315958662778,-71.0659605900958, Inside ,2022/11/18 09:56:32+00,1,,,Inside,,123
-7911026.54562431,5208426.65261463,N_601230550253965256,Strand Theatre - Internal,Q2KD-T5KV-QQRN,Strand_Stage Right ,"543 Columbia Rd, Boston, MA 02125",42.315958662778,-71.0659605900958, Inside ,2022/11/18 09:56:32+00,1,,,Inside,,124
-7911026.54562431,5208426.65261463,N_601230550253965256,Strand Theatre - Internal,Q2KD-V49N-RSA2,Strand_Orchestra lobby_AP1,"543 Columbia Rd, Boston, MA 02125",42.315958662778,-71.0659605900958, Inside ,2022/11/18 09:56:32+00,1,,,Inside,,125
-7911026.54562431,5208426.65261463,N_601230550253965256,Strand Theatre - Internal,Q2KD-6H83-WZ3E,Strand_Box Office ceiling,"543 Columbia Rd, Boston, MA 02125",42.315958662778,-71.0659605900958, Inside ,2022/11/18 09:56:32+00,1,,,Inside,,126
-7911026.54562431,5208426.65261463,N_601230550253965256,Strand Theatre - Internal,Q2KD-DQJU-LYTD,Strand_Stage Left,"543 Columbia Rd, Boston, MA 02125",42.315958662778,-71.0659605900958, Inside ,2022/11/18 09:56:32+00,1,,,Inside,,127
-7911026.54562431,5208426.65261463,N_601230550253965256,Strand Theatre - Internal,Q2KD-4MAV-QUR8,Strand_Camera room office right,"543 Columbia Rd, Boston, MA 02125",42.315958662778,-71.0659605900958, Inside ,2022/11/18 09:56:32+00,1,,,Inside,,128
-7911026.54562431,5208426.65261463,N_601230550253965256,Strand Theatre - Internal,Q2KD-4CVV-PPU5,Strand_Orchestra lobby_AP3,"543 Columbia Rd, Boston, MA 02125",42.315958662778,-71.0659605900958, Inside ,2022/11/18 09:56:32+00,1,,,Inside,,129
-7912918.97793197,5210706.17756294,N_601230550253966449,OPAT,Q3AC-GXG6-6WZR,OPAT-AP1,2201 Washington St Roxbury MA 02118,42.3310986653424,-71.0829605987571,,2022/11/18 09:56:33+00,1,,,,,130
-7912918.97793197,5210706.17756294,N_601230550253966449,OPAT,Q3AC-ZNTZ-AXMN,OPAT-AP2,2201 Washington St Roxbury MA 02118,42.3310986653424,-71.0829605987571,,2022/11/18 09:56:33+00,1,,,,,131
-7904346.26164797,5218988.75379076,N_601230550253966604,East Boston Senior Center,Q3AB-3PP3-JU4W,EBSC-AP-1,"18 Barnes Avenue, East Boston, MA 02128",42.3860786782013,-71.0059505781137, Inside employee ,2022/11/18 09:56:34+00,1,,,Inside,employee,132
-7904346.26164797,5218988.75379076,N_601230550253966604,East Boston Senior Center,Q3AB-SYXF-PX75,EBSC-AP-3,"18 Barnes Avenue, East Boston, MA 02128",42.3860786782013,-71.0059505781137, Inside employee ,2022/11/18 09:56:34+00,1,,,Inside,employee,133
-7904346.26164797,5218988.75379076,N_601230550253966604,East Boston Senior Center,Q3AB-384Z-M6EA,EBSC-AP-4,"18 Barnes Avenue, East Boston, MA 02128",42.3860786782013,-71.0059505781137, Inside employee ,2022/11/18 09:56:34+00,1,,,Inside,employee,134
-7904346.26164797,5218988.75379076,N_601230550253966604,East Boston Senior Center,Q3AB-4Q4V-8E7P,EBSC-AP-5,"18 Barnes Avenue, East Boston, MA 02128",42.3860786782013,-71.0059505781137, Inside employee ,2022/11/18 09:56:34+00,1,,,Inside,employee,135
-7910170.50504409,5215104.91233797,N_601230550253966673,City Hall Plaza and Pavilion,Q3AE-QMTD-57LD,2nd Floor North Entrance,"1 City Hall Plaza, 
Boston, MA  02201",42.3603036010139,-71.0582706467254, City-Hall ,2022/11/18 09:56:35+00,1,,,,City Hall,136
-7910170.50504409,5215104.91233797,N_601230550253966673,City Hall Plaza and Pavilion,Q3AE-WU87-WVGK,3rd Floor Lobby Entrance,"1 City Hall Plaza, 
Boston, MA  02201",42.3603036010139,-71.0582706467254, City-Hall ,2022/11/18 09:56:35+00,1,,,,City Hall,137
-7910789.06630099,5214371.55607318,N_568579452955527921,Parks,Q2CK-N8A5-VD4F,PARKS-COMMONWEST-AP3,"139 Tremont St, Boston, MA 02111",42.3554355018542,-71.0638272770378, recently-added ,2022/11/18 09:55:56+00,1,,,,,138
-7916761.50238065,5208414.63544093,N_568579452955527921,Parks,Q2CD-6YGF-H7PW,PARKS-JAMAICAPOND-AP3,"507 Jamaicaway, Jamaica Plain, MA - inside boat house",42.3158788382307,-71.1174785831756, Jamaica-Pond Outside ,2022/11/18 09:55:56+00,1,,,Outside,Jamaica Pond,139
-7910789.06630099,5214371.55607318,N_568579452955527921,Parks,Q2CK-NK2U-62SL,PARKS-COMMONEAST-AP2,"139 Tremont St, Boston, MA 02111",42.3554355018542,-71.0638272770378, Boston-Common ,2022/11/18 09:55:56+00,1,,,,Boston Common,140
-7910789.06630099,5214371.55607318,N_568579452955527921,Parks,Q2CK-L3KB-8LWG,PARKS-COMMONWEST-AP4,"139 Tremont St, Boston, MA 02111",42.3554355018542,-71.0638272770378, recently-added ,2022/11/18 09:55:56+00,1,,,,,141
-7913307.48293078,5209515.15517897,N_568579452955527921,Parks,Q2AK-ZBZB-FW8M,PARKS-FRANKLIN-AP1,"1 Circuit Dr., Roxbury, MA",42.3231886637714,-71.086450598541, Franklin-Park Outside ,2022/11/18 09:55:56+00,1,,,Outside,Franklin Park,142
-7913307.48293078,5209515.15517897,N_568579452955527921,Parks,Q2DD-4KWV-JRMB,PARKS-FRANKLIN-AP2,"1 Circuit Dr., Roxbury, MA",42.3231886637714,-71.086450598541, Franklin-Park Outside ,2022/11/18 09:55:56+00,1,,,Outside,Franklin Park,143
-7910789.06630099,5214371.55607318,N_568579452955527921,Parks,Q2EK-WDLM-65C6,PARKS-COMMONEAST-AP4 ,"139 Tremont St, Boston, MA 02111",42.3554355018542,-71.0638272770378, Boston-Common ,2022/11/18 09:55:56+00,1,,,,Boston Common,144
-7916761.50238065,5208414.63544093,N_568579452955527921,Parks,Q2CK-7CSR-NUQK,PARKS-JAMAICAPOND-AP2,"507 Jamaicaway, Jamaica Plain, MA - bandstand",42.3158788382307,-71.1174785831756, Jamaica-Pond Outside ,2022/11/18 09:55:56+00,1,,,Outside,Jamaica Pond,145
-7916761.50238065,5208414.63544093,N_568579452955527921,Parks,Q2CK-7ANU-RF72,PARKS-JAMAICAPOND-AP1,"507 Jamaicaway, Jamaica Plain, MA - boat house",42.3158788382307,-71.1174785831756, Jamaica-Pond Outside ,2022/11/18 09:55:56+00,1,,,Outside,Jamaica Pond,146
-7909161.2597157,5205153.48399183,N_568579452955534204,Dorchester,Q2CK-S8TK-5BFB,DOT-MURPHY-AP1,"1 Worrell St, Dorchester, MA 02122",42.2942127699993,-71.0492044416863, BPS Murphy-School Outside ,2022/11/18 09:55:57+00,1,BPS,,Outside,Murphy School,147
-7911607.53118285,5205990.83337966,N_568579452955534204,Dorchester,Q2CK-CJQV-TSTH,DOT-MARSHALL-AP2,"35 Westville St., Dorchester, MA",42.2997765683813,-71.0711796721667, BPS Marshall-School Outside UP-Academy ,2022/11/18 09:55:57+00,1,BPS,,Outside,Marshall School UP Academy,148
-7909161.2597157,5205153.48399183,N_568579452955534204,Dorchester,Q2CK-FZJ6-67HG,DOT-MURPHY-AP2,"1 worrell st Dorchester, ma",42.2942127699993,-71.0492044416863, BCYF-Grant BPS Murphy-School Outside ,2022/11/18 09:55:57+00,1,,,Outside,Murphy School,149
-7910651.00511018,5207219.57030512,N_568579452955534204,Dorchester,Q2CK-F72Z-RK25,DOT-MATHER-AP1,"1 Parish St., Dorchester, MA",42.3079400655335,-71.0625870522593, BPS Mather-School Outside ,2022/11/18 09:55:57+00,1,BPS,,Outside,Mather School,150
-7911905.79471037,5206870.06566328,N_568579452955534204,Dorchester,Q2CK-GMBW-WDLD,DOT-HOLLAND-AP1,"85 Olney St., Dorchester, MA",42.3056181301162,-71.0738590190213, BCYF Holland-Comm-Center Outside ,2022/11/18 09:55:57+00,1,BCYF,,Outside,Holland Comm Center,151
-7911206.88338086,5208249.01136844,N_568579452955534204,Dorchester,Q2CK-CRWS-U8UK,DOT-BPL-AP1,"500 Columbia Rd., Dorchester, MA",42.3147786635241,-71.0675805917259, BPL Outside Uphams-Corner-Branch ,2022/11/18 09:55:57+00,1,BPL,,Outside,Uphams Corner Branch,152
-7910560.10607368,5206144.54977923,N_568579452955534204,Dorchester,Q2CK-L5SX-NBNQ,DOT-CLEVELAND-AP1,"11 Charles St, Dorchester",42.3007978891716,-71.0617704923213, recently-added ,2022/11/18 09:55:57+00,1,,,,,153
-7918838.05951106,5214129.05470372,N_568579452955538703,Alston Brighton,Q2CK-LVPP-KFQ4,AB-BFDE41-AP1,"460 Cambridge St

Boston, MA 02134",42.3538256682487,-71.1361326132616, recently-added ,2022/11/18 09:56:01+00,1,,,,,154
-7910789.06630099,5214371.55607318,N_568579452955527921,Parks,Q2CK-MP93-YDN3,PARKS-COMMONEAST-AP1,"139 Tremont St, Boston, MA 02111",42.3554355018542,-71.0638272770378, Boston-Common ,2022/11/18 09:55:56+00,1,,,,Boston Common,155
-7912997.17250358,5210563.16541154,N_601230550253961809,Bolling,Q2FD-VT33-84WZ,BOL-ROOFDECK-AP1,"2300 Washington St., Roxbury 02119",42.3301489235268,-71.0836630325452, Bolling Inside ,2022/11/18 09:56:10+00,1,,,Inside,Bolling,156
-7910170.50504409,5215104.91233797,N_601230550253962397,Main Streets Staging,Q2CK-J8SH-SJKJ,,"1 city hall plaza, boston",42.3603036010139,-71.0582706467254, recently-added ,2022/11/18 09:56:16+00,1,,,,,157
-7912222.88106393,5210060.51558676,N_579275502070532581,Roxbury,Q2CK-NEZE-VRYJ,ROX-VINE-AP3,"339 Dudley St, Roxbury",42.3268107188774,-71.0767074541993, recently-added ,2022/11/18 09:56:02+00,1,,,,,158
